H1 CPF 01  gfz 2023 01 03 13  5032 terrasarx 
H2 0702601  6201 31698    2023 01 03 12 59 42 2023 01 08 00 00 42   120 1 1  0 0 0
H9
10 0 59950  85662.000000  0    -801718.788   5943479.458   3380676.925
10 0 59950  85782.000000  0    -664204.419   6354858.860   2567095.144
10 0 59950  85902.000000  0    -508873.227   6652558.872   1708306.789
10 0 59950  86022.000000  0    -340479.959   6831109.566    819435.789
10 0 59950  86142.000000  0    -164084.856   6887231.998    -83862.961
10 0 59950  86262.000000  0      15075.793   6819902.050   -985687.505
10 0 59950  86382.000000  0     191723.286   6630367.662  -1870179.230
10 0 59951    102.000000  0     360669.099   6322118.256  -2721809.580
10 0 59951    222.000000  0     516944.301   5900811.486  -3525657.308
10 0 59951    342.000000  0     655923.340   5374158.561  -4267672.341
10 0 59951    462.000000  0     773438.794   4751770.586  -4934920.317
10 0 59951    582.000000  0     865884.420   4044970.929  -5515803.024
10 0 59951    702.000000  0     930304.077   3266578.980  -6000251.895
10 0 59951    822.000000  0     964464.413   2430669.830  -6379892.527
10 0 59951    942.000000  0     966910.955   1552315.627  -6648177.268
10 0 59951   1062.000000  0     937006.118    647314.823  -6800487.417
10 0 59951   1182.000000  0     874949.065   -268088.547  -6834204.742
10 0 59951   1302.000000  0     781777.130  -1177491.172  -6748751.033
10 0 59951   1422.000000  0     659348.417  -2064616.825  -6545595.136
10 0 59951   1542.000000  0     510306.950  -2913598.925  -6228231.023
10 0 59951   1662.000000  0     338029.431  -3709260.214  -5802126.535
10 0 59951   1782.000000  0     146554.681  -4437382.801  -5274637.596
10 0 59951   1902.000000  0     -59502.182  -5084963.356  -4654892.392
10 0 59951   2022.000000  0    -275051.059  -5640451.211  -3953645.087
10 0 59951   2142.000000  0    -494641.339  -6093963.819  -3183098.798
10 0 59951   2262.000000  0    -712587.237  -6437473.806  -2356700.426
10 0 59951   2382.000000  0    -923101.574  -6664964.378  -1488910.167
10 0 59951   2502.000000  0   -1120434.620  -6772547.605   -594947.596
10 0 59951   2622.000000  0   -1299014.601  -6758541.004    309479.571
10 0 59951   2742.000000  0   -1453586.544  -6623500.608   1208458.025
10 0 59951   2862.000000  0   -1579346.119  -6370209.483   2086157.353
10 0 59951   2982.000000  0   -1672064.288  -6003620.845   2927118.265
10 0 59951   3102.000000  0   -1728199.633  -5530756.886   3716533.248
10 0 59951   3222.000000  0   -1744994.826  -4960566.597   4440513.190
10 0 59951   3342.000000  0   -1720555.565  -4303747.468   5086333.770
10 0 59951   3462.000000  0   -1653911.338  -3572536.247   5642659.637
10 0 59951   3582.000000  0   -1545055.177  -2780470.681   6099741.415
10 0 59951   3702.000000  0   -1394961.237  -1942130.933   6449580.207
10 0 59951   3822.000000  0   -1205581.395  -1072867.450   6686061.198
10 0 59951   3942.000000  0    -979821.821   -188516.963   6805055.132
10 0 59951   4062.000000  0    -721499.257    694886.524   6804485.144
10 0 59951   4182.000000  0    -435276.449   1561401.671   6684361.426
10 0 59951   4302.000000  0    -126577.841   2395467.189   6446781.157
10 0 59951   4422.000000  0     198512.717   3182181.094   6095893.878
10 0 59951   4542.000000  0     533370.030   3907567.935   5637833.684
10 0 59951   4662.000000  0     870959.992   4558830.659   5080617.669
10 0 59951   4782.000000  0    1203984.739   5124582.089   4434011.624
10 0 59951   4902.000000  0    1525036.842   5595051.385   3709363.251
10 0 59951   5022.000000  0    1826759.851   5962261.794   2919408.818
10 0 59951   5142.000000  0    2102014.431   6220177.401   2078048.462
10 0 59951   5262.000000  0    2344040.284   6364810.232   1200097.215
10 0 59951   5382.000000  0    2546614.132   6394286.062    301017.060
10 0 59951   5502.000000  0    2704197.289   6308866.980   -603362.781
10 0 59951   5622.000000  0    2812070.725   6110932.363  -1497132.524
10 0 59951   5742.000000  0    2866453.978   5804917.089  -2364589.538
10 0 59951   5862.000000  0    2864604.644   5397209.528  -3190520.972
10 0 59951   5982.000000  0    2804895.930   4896010.749  -3960475.537
10 0 59951   6102.000000  0    2686869.912   4311159.552  -4661016.716
10 0 59951   6222.000000  0    2511266.052   3653929.743  -5279953.554
10 0 59951   6342.000000  0    2280025.622   2936804.822  -5806545.560
10 0 59951   6462.000000  0    1996272.177   2173234.739  -6231679.982
10 0 59951   6582.000000  0    1664268.087   1377380.147  -6548017.793
10 0 59951   6702.000000  0    1289350.109    563850.521  -6750108.646
10 0 59951   6822.000000  0     877843.587   -252560.439  -6834476.022
10 0 59951   6942.000000  0     436955.859  -1057139.101  -6799670.287
10 0 59951   7062.000000  0     -25347.537  -1835510.395  -6646289.111
10 0 59951   7182.000000  0    -500482.362  -2573886.931  -6376968.723
10 0 59951   7302.000000  0    -979401.124  -3259309.195  -5996345.096
10 0 59951   7422.000000  0   -1452760.675  -3879870.962  -5510981.616
10 0 59951   7542.000000  0   -1911099.923  -4424926.699  -4929267.339
10 0 59951   7662.000000  0   -2345025.953  -4885279.589  -4261284.079
10 0 59951   7782.000000  0   -2745404.999  -5253344.466  -3518641.734
10 0 59951   7902.000000  0   -3103553.501  -5523281.668  -2714284.685
10 0 59951   8022.000000  0   -3411425.587  -5691099.613  -1862271.870
10 0 59951   8142.000000  0   -3661793.092  -5754723.023   -977532.783
10 0 59951   8262.000000  0   -3848412.580  -5714023.585    -75602.919
10 0 59951   8382.000000  0   -3966174.379  -5570811.333    827655.132
10 0 59951   8502.000000  0   -4011230.291  -5328786.887   1716339.011
10 0 59951   8622.000000  0   -3981095.976  -4993454.565   2574796.199
10 0 59951   8742.000000  0   -3874725.191  -4571999.045   3387907.925
10 0 59951   8862.000000  0   -3692554.721  -4073129.861   4141362.112
10 0 59951   8982.000000  0   -3436518.451  -3506896.693   4821910.007
10 0 59951   9102.000000  0   -3110030.602  -2884480.258   5417599.858
10 0 59951   9222.000000  0   -2717939.330  -2217965.856   5917984.376
10 0 59951   9342.000000  0   -2266451.783  -1520104.711   6314299.934
10 0 59951   9462.000000  0   -1763032.597   -804066.472   6599616.283
10 0 59951   9582.000000  0   -1216275.755    -83186.918   6768951.416
10 0 59951   9702.000000  0    -635756.243    629279.778   6819350.653
10 0 59951   9822.000000  0     -31862.851   1320403.516   6749935.683
10 0 59951   9942.000000  0     584387.477   1977812.675   6561919.310
10 0 59951  10062.000000  0    1201550.342   2589915.630   6258585.163
10 0 59951  10182.000000  0    1807965.489   3146104.986   5845233.590
10 0 59951  10302.000000  0    2391976.425   3636943.685   5329095.289
10 0 59951  10422.000000  0    2942155.846   4054329.858   4719211.426
10 0 59951  10542.000000  0    3447531.857   4391635.292   4026279.489
10 0 59951  10662.000000  0    3897808.269   4643815.244   3262470.589
10 0 59951  10782.000000  0    4283580.181   4807490.669   2441218.815
10 0 59951  10902.000000  0    4596533.901   4880994.427   1576980.069
10 0 59951  11022.000000  0    4829625.817   4864383.851    684974.695
10 0 59951  11142.000000  0    4977241.835   4759419.246   -219088.226
10 0 59951  11262.000000  0    5035325.260   4569505.167  -1119297.713
10 0 59951  11382.000000  0    5001473.560   4299598.500  -1999828.705
10 0 59951  11502.000000  0    4875002.939   3956086.616  -2845227.196
10 0 59951  11622.000000  0    4656977.751   3546638.032  -3640686.677
10 0 59951  11742.000000  0    4350203.979   3080030.379  -4372309.583
10 0 59951  11862.000000  0    3959188.338   2565959.644  -5027348.426
10 0 59951  11982.000000  0    3490065.408   2014835.461  -5594422.305
10 0 59951  12102.000000  0    2950494.061   1437568.380  -6063706.319
10 0 59951  12222.000000  0    2349525.473    845353.572  -6427090.988
10 0 59951  12342.000000  0    1697447.199    249455.487  -6678310.109
10 0 59951  12462.000000  0    1005607.362   -339002.311  -6813038.417
10 0 59951  12582.000000  0     286218.337   -909240.850  -6828959.397
10 0 59951  12702.000000  0    -447855.276  -1451018.251  -6725798.772
10 0 59951  12822.000000  0   -1183320.320  -1954808.151  -6505328.766
10 0 59951  12942.000000  0   -1906690.345  -2411963.976  -6171341.914
10 0 59951  13062.000000  0   -2604527.385  -2814865.673  -5729592.192
10 0 59951  13182.000000  0   -3263687.126  -3157046.707  -5187706.620
10 0 59951  13302.000000  0   -3871566.309  -3433301.184  -4555065.956
10 0 59951  13422.000000  0   -4416346.016  -3639766.863  -3842652.627
10 0 59951  13542.000000  0   -4887225.773  -3773982.496  -3062869.721
10 0 59951  13662.000000  0   -5274644.362  -3834918.468  -2229331.753
10 0 59951  13782.000000  0   -5570481.212  -3822978.919  -1356629.656
10 0 59951  13902.000000  0   -5768233.022  -3739974.655   -460074.699
10 0 59951  14022.000000  0   -5863161.168  -3589067.374    444574.234
10 0 59951  14142.000000  0   -5852405.943  -3374686.401   1341394.881
10 0 59951  14262.000000  0   -5735062.405  -3102418.612   2214592.063
10 0 59951  14382.000000  0   -5512215.540  -2778874.083   3048784.840
10 0 59951  14502.000000  0   -5186935.977  -2411533.183   3829284.739
10 0 59951  14622.000000  0   -4764235.068  -2008576.978   4542360.992
10 0 59951  14742.000000  0   -4250980.419  -1578705.677   5175483.786
10 0 59951  14862.000000  0   -3655777.019  -1130951.960   5717542.496
10 0 59951  14982.000000  0   -2988816.285   -674491.841   6159038.345
10 0 59951  15102.000000  0   -2261693.997   -218456.066   6492247.037
10 0 59951  15222.000000  0   -1487201.834    228252.280   6711346.853
10 0 59951  15342.000000  0    -679099.216    657129.477   6812513.611
10 0 59951  15462.000000  0     148131.748   1060231.737   6793983.190
10 0 59951  15582.000000  0     979545.109   1430321.696   6656080.291
10 0 59951  15702.000000  0    1800000.337   1760998.647   6401213.078
99
